[{"OBJECT_NAME":"STARLINK-37104","OBJECT_ID":"2026-053AA","EPOCH":"2026-04-03T06:39:03.924864","MEAN_MOTION":15.80875417,"ECCENTRICITY":0.00011753,"INCLINATION":97.2848,"RA_OF_ASC_NODE":328.8161,"ARG_OF_PERICENTER":117.3885,"MEAN_ANOMALY":242.7503,"EPHEMERIS_TYPE":0,"CLASSIFICATION_TYPE":"U","NORAD_CAT_ID":68231,"ELEMENT_SET_NO":999,"REV_AT_EPOCH":394,"BSTAR":0.00074867326,"MEAN_MOTION_DOT":0.00146085,"MEAN_MOTION_DDOT":0},{"OBJECT_NAME":"STARLINK-37027","OBJECT_ID":"2026-054A","EPOCH":"2026-04-03T07:14:35.990880","MEAN_MOTION":15.75257496,"ECCENTRICITY":0.00013347,"INCLINATION":53.16,"RA_OF_ASC_NODE":189.5312,"ARG_OF_PERICENTER":105.7299,"MEAN_ANOMALY":254.3869,"EPHEMERIS_TYPE":0,"CLASSIFICATION_TYPE":"U","NORAD_CAT_ID":68232,"ELEMENT_SET_NO":999,"REV_AT_EPOCH":266,"BSTAR":0.00095866968,"MEAN_MOTION_DOT":0.00149049,"MEAN_MOTION_DDOT":0},{"OBJECT_NAME":"STARLINK-37132","OBJECT_ID":"2026-054B","EPOCH":"2026-04-03T06:48:36.798336","MEAN_MOTION":15.80963124,"ECCENTRICITY":0.00017706,"INCLINATION":53.1588,"RA_OF_ASC_NODE":189.4109,"ARG_OF_PERICENTER":160.3273,"MEAN_ANOMALY":199.7818,"EPHEMERIS_TYPE":0,"CLASSIFICATION_TYPE":"U","NORAD_CAT_ID":68233,"ELEMENT_SET_NO":999,"REV_AT_EPOCH":266,"BSTAR":0.0026605779,"MEAN_MOTION_DOT":0.00562402,"MEAN_MOTION_DDOT":0},{"OBJECT_NAME":"STARLINK-37101","OBJECT_ID":"2026-054C","EPOCH":"2026-04-03T06:00:00.999648","MEAN_MOTION":15.75126142,"ECCENTRICITY":0.00014185,"INCLINATION":53.1591,"RA_OF_ASC_NODE":189.6857,"ARG_OF_PERICENTER":96.7206,"MEAN_ANOMALY":19.1759,"EPHEMERIS_TYPE":0,"CLASSIFICATION_TYPE":"U","NORAD_CAT_ID":68234,"ELEMENT_SET_NO":999,"REV_AT_EPOCH":386,"BSTAR":0.00068236381,"MEAN_MOTION_DOT":0.00104744,"MEAN_MOTION_DDOT":0},{"OBJECT_NAME":"STARLINK-36963","OBJECT_ID":"2026-054D","EPOCH":"2026-04-03T07:08:32.002368","MEAN_MOTION":15.75259296,"ECCENTRICITY":0.00016853,"INCLINATION":53.1597,"RA_OF_ASC_NODE":189.5025,"ARG_OF_PERICENTER":138.2294,"MEAN_ANOMALY":221.8855,"EPHEMERIS_TYPE":0,"CLASSIFICATION_TYPE":"U","NORAD_CAT_ID":68235,"ELEMENT_SET_NO":999,"REV_AT_EPOCH":266,"BSTAR":0.00084107708,"MEAN_MOTION_DOT":0.0013041,"MEAN_MOTION_DDOT":0},{"OBJECT_NAME":"STARLINK-37127","OBJECT_ID":"2026-054E","EPOCH":"2026-04-03T07:21:36.080640","MEAN_MOTION":15.75314421,"ECCENTRICITY":0.00012478,"INCLINATION":53.1594,"RA_OF_ASC_NODE":189.5628,"ARG_OF_PERICENTER":101.45,"MEAN_ANOMALY":258.666,"EPHEMERIS_TYPE":0,"CLASSIFICATION_TYPE":"U","NORAD_CAT_ID":68236,"ELEMENT_SET_NO":999,"REV_AT_EPOCH":266,"BSTAR":0.0016593375,"MEAN_MOTION_DOT":0.00262635,"MEAN_MOTION_DDOT":0},{"OBJECT_NAME":"STARLINK-37095","OBJECT_ID":"2026-054F","EPOCH":"2026-04-03T07:15:03.897216","MEAN_MOTION":15.75284359,"ECCENTRICITY":0.00016908,"INCLINATION":53.1599,"RA_OF_ASC_NODE":189.5329,"ARG_OF_PERICENTER":142.9182,"MEAN_ANOMALY":217.1956,"EPHEMERIS_TYPE":0,"CLASSIFICATION_TYPE":"U","NORAD_CAT_ID":68237,"ELEMENT_SET_NO":999,"REV_AT_EPOCH":266,"BSTAR":0.0012857512,"MEAN_MOTION_DOT":0.00201618,"MEAN_MOTION_DDOT":0},{"OBJECT_NAME":"STARLINK-37097","OBJECT_ID":"2026-054G","EPOCH":"2026-04-03T06:43:11.998272","MEAN_MOTION":15.80911571,"ECCENTRICITY":0.00011531,"INCLINATION":53.1581,"RA_OF_ASC_NODE":189.3854,"ARG_OF_PERICENTER":96.7769,"MEAN_ANOMALY":263.3385,"EPHEMERIS_TYPE":0,"CLASSIFICATION_TYPE":"U","NORAD_CAT_ID":68238,"ELEMENT_SET_NO":999,"REV_AT_EPOCH":266,"BSTAR":0.0010389202,"MEAN_MOTION_DOT":0.0020978,"MEAN_MOTION_DDOT":0},{"OBJECT_NAME":"STARLINK-37096","OBJECT_ID":"2026-054H","EPOCH":"2026-04-03T06:41:02.903712","MEAN_MOTION":15.80912651,"ECCENTRICITY":0.00012252,"INCLINATION":53.1583,"RA_OF_ASC_NODE":189.376,"ARG_OF_PERICENTER":68.8228,"MEAN_ANOMALY":291.2925,"EPHEMERIS_TYPE":0,"CLASSIFICATION_TYPE":"U","NORAD_CAT_ID":68239,"ELEMENT_SET_NO":999,"REV_AT_EPOCH":266,"BSTAR":0.00094523539,"MEAN_MOTION_DOT":0.00190376,"MEAN_MOTION_DDOT":0},{"OBJECT_NAME":"STARLINK-37092","OBJECT_ID":"2026-054J","EPOCH":"2026-04-01T18:17:24.050688","MEAN_MOTION":15.80699611,"ECCENTRICITY":9.01e-5,"INCLINATION":53.1592,"RA_OF_ASC_NODE":196.9847,"ARG_OF_PERICENTER":264.3006,"MEAN_ANOMALY":95.7914,"EPHEMERIS_TYPE":0,"CLASSIFICATION_TYPE":"U","NORAD_CAT_ID":68240,"ELEMENT_SET_NO":999,"REV_AT_EPOCH":242,"BSTAR":0.0021526474,"MEAN_MOTION_DOT":0.00443187,"MEAN_MOTION_DDOT":0},{"OBJECT_NAME":"STARLINK-37094","OBJECT_ID":"2026-054K","EPOCH":"2026-04-03T06:39:58.131360","MEAN_MOTION":15.80833987,"ECCENTRICITY":0.00017667,"INCLINATION":53.1588,"RA_OF_ASC_NODE":189.3703,"ARG_OF_PERICENTER":144.2318,"MEAN_ANOMALY":215.8824,"EPHEMERIS_TYPE":0,"CLASSIFICATION_TYPE":"U","NORAD_CAT_ID":68241,"ELEMENT_SET_NO":999,"REV_AT_EPOCH":266,"BSTAR":0.0011141512,"MEAN_MOTION_DOT":0.00224609,"MEAN_MOTION_DDOT":0},{"OBJECT_NAME":"STARLINK-36356","OBJECT_ID":"2026-054L","EPOCH":"2026-04-03T06:00:00.999648","MEAN_MOTION":15.75075673,"ECCENTRICITY":0.00010583,"INCLINATION":53.159,"RA_OF_ASC_NODE":189.6282,"ARG_OF_PERICENTER":84.0045,"MEAN_ANOMALY":59.5184,"EPHEMERIS_TYPE":0,"CLASSIFICATION_TYPE":"U","NORAD_CAT_ID":68242,"ELEMENT_SET_NO":999,"REV_AT_EPOCH":390,"BSTAR":0.0015646483,"MEAN_MOTION_DOT":0.00244517,"MEAN_MOTION_DDOT":0},{"OBJECT_NAME":"STARLINK-36345","OBJECT_ID":"2026-054M","EPOCH":"2026-04-03T07:08:03.823872","MEAN_MOTION":15.75247684,"ECCENTRICITY":0.00013721,"INCLINATION":53.16,"RA_OF_ASC_NODE":189.4996,"ARG_OF_PERICENTER":88.019,"MEAN_ANOMALY":272.0987,"EPHEMERIS_TYPE":0,"CLASSIFICATION_TYPE":"U","NORAD_CAT_ID":68243,"ELEMENT_SET_NO":999,"REV_AT_EPOCH":266,"BSTAR":0.00083814732,"MEAN_MOTION_DOT":0.00129877,"MEAN_MOTION_DDOT":0},{"OBJECT_NAME":"STARLINK-36310","OBJECT_ID":"2026-054N","EPOCH":"2026-04-03T06:35:38.748192","MEAN_MOTION":15.80905967,"ECCENTRICITY":0.00010073,"INCLINATION":53.1592,"RA_OF_ASC_NODE":189.3505,"ARG_OF_PERICENTER":83.094,"MEAN_ANOMALY":277.0197,"EPHEMERIS_TYPE":0,"CLASSIFICATION_TYPE":"U","NORAD_CAT_ID":68244,"ELEMENT_SET_NO":999,"REV_AT_EPOCH":266,"BSTAR":0.00098511908,"MEAN_MOTION_DOT":0.00198568,"MEAN_MOTION_DDOT":0},{"OBJECT_NAME":"STARLINK-36247","OBJECT_ID":"2026-054P","EPOCH":"2026-04-03T06:36:43.149024","MEAN_MOTION":15.80888383,"ECCENTRICITY":9.749e-5,"INCLINATION":53.1592,"RA_OF_ASC_NODE":189.3551,"ARG_OF_PERICENTER":91.3747,"MEAN_ANOMALY":268.7388,"EPHEMERIS_TYPE":0,"CLASSIFICATION_TYPE":"U","NORAD_CAT_ID":68245,"ELEMENT_SET_NO":999,"REV_AT_EPOCH":266,"BSTAR":0.0012618526,"MEAN_MOTION_DOT":0.00256057,"MEAN_MOTION_DDOT":0},{"OBJECT_NAME":"STARLINK-37043","OBJECT_ID":"2026-054Q","EPOCH":"2026-04-03T06:34:33.591360","MEAN_MOTION":15.8091517,"ECCENTRICITY":0.00015964,"INCLINATION":53.1584,"RA_OF_ASC_NODE":189.3448,"ARG_OF_PERICENTER":46.677,"MEAN_ANOMALY":313.4386,"EPHEMERIS_TYPE":0,"CLASSIFICATION_TYPE":"U","NORAD_CAT_ID":68246,"ELEMENT_SET_NO":999,"REV_AT_EPOCH":266,"BSTAR":0.00076206395,"MEAN_MOTION_DOT":0.00152694,"MEAN_MOTION_DDOT":0}]
